GCOM-W1 (SHIZUKU)       
1 38337U 12025A   17345.87632271  .00000061  00000-0  23628-4 0  9992
2 38337  98.2231 283.5776 0000664 105.5702 291.7302 14.57117610296245
